[{"OBJECT_NAME":"NUSAT-33 (ALBANIA-2)","OBJECT_ID":"2023-001AQ","EPOCH":"2026-03-09T22:33:27.663264","MEAN_MOTION":15.26923259,"ECCENTRICITY":0.00076854,"INCLINATION":97.3178,"RA_OF_ASC_NODE":131.8399,"ARG_OF_PERICENTER":52.546,"MEAN_ANOMALY":307.6477,"EPHEMERIS_TYPE":0,"CLASSIFICATION_TYPE":"U","NORAD_CAT_ID":55047,"ELEMENT_SET_NO":999,"REV_AT_EPOCH":17716,"BSTAR":0.0004947656,"MEAN_MOTION_DOT":0.00013029,"MEAN_MOTION_DDOT":0},{"OBJECT_NAME":"STARLINK-31393","OBJECT_ID":"2024-049X","EPOCH":"2026-03-09T05:28:32.217024","MEAN_MOTION":15.27571272,"ECCENTRICITY":6.176e-5,"INCLINATION":43.0004,"RA_OF_ASC_NODE":131.5827,"ARG_OF_PERICENTER":279.7597,"MEAN_ANOMALY":80.3185,"EPHEMERIS_TYPE":0,"CLASSIFICATION_TYPE":"U","NORAD_CAT_ID":59252,"ELEMENT_SET_NO":999,"REV_AT_EPOCH":11250,"BSTAR":-3.4105283e-5,"MEAN_MOTION_DOT":-1.2e-5,"MEAN_MOTION_DDOT":0}]
